[{"OBJECT_NAME":"OBJECT A","OBJECT_ID":"2024-153A","EPOCH":"2026-03-09T23:23:00.048768","MEAN_MOTION":15.38255179,"ECCENTRICITY":0.0008915,"INCLINATION":97.6577,"RA_OF_ASC_NODE":205.6534,"ARG_OF_PERICENTER":134.2023,"MEAN_ANOMALY":225.9955,"EPHEMERIS_TYPE":0,"CLASSIFICATION_TYPE":"U","NORAD_CAT_ID":60745,"ELEMENT_SET_NO":999,"REV_AT_EPOCH":8481,"BSTAR":0.0015987214,"MEAN_MOTION_DOT":0.00060651,"MEAN_MOTION_DDOT":0},{"OBJECT_NAME":"SL-14 R\/B","OBJECT_ID":"1991-086B","EPOCH":"2026-03-09T21:12:20.037600","MEAN_MOTION":11.96623945,"ECCENTRICITY":0.15622342,"INCLINATION":82.5616,"RA_OF_ASC_NODE":35.3422,"ARG_OF_PERICENTER":86.2667,"MEAN_ANOMALY":291.495,"EPHEMERIS_TYPE":0,"CLASSIFICATION_TYPE":"U","NORAD_CAT_ID":21820,"ELEMENT_SET_NO":999,"REV_AT_EPOCH":48727,"BSTAR":0.00015922751,"MEAN_MOTION_DOT":8.43e-6,"MEAN_MOTION_DDOT":0}]
